ONEWEB-0435             
1 51632U 22012L   25147.89568996  .00000544  00000+0  15225-2 0  9992
2 51632  87.8812 113.1079 0001703  92.1940 267.9382 13.10372375160131
ONEWEB-0436             
1 51633U 22012M   25147.53241698  .00000038  00000+0  64345-4 0  9998
2 51633  87.9061  82.6296 0001913  86.6550 273.4800 13.17649212164188
ONEWEB-0438             
1 51634U 22012N   25147.64999305  .00000413  00000+0  11468-2 0  9999
2 51634  87.8816 113.1574 0002087  78.2628 281.8733 13.10375026160143
ONEWEB-0439             
1 51635U 22012P   25147.65331562  .00000606  00000+0  17000-2 0  9998
2 51635  87.8816 113.1443 0001981  83.5811 276.5542 13.10374920160112
ONEWEB-0442             
1 51636U 22012Q   25147.52480865  .00000021  00000+0  19749-4 0  9991
2 51636  87.9074  82.6790 0002586  70.2594 289.8816 13.17652831164176
ONEWEB-0443             
1 51637U 22012R   25147.54422430 -.00000015  00000+0 -72320-4 0  9997
2 51637  87.9067  82.6878 0001931  70.9462 289.1879 13.17648831164223
ONEWEB-0444             
1 51638U 22012S   25147.64334769  .00000036  00000+0  67770-4 0  9990
2 51638  87.8811 113.1505 0001896  84.0435 276.0908 13.10375879160139
ONEWEB-0445             
1 51639U 22012T   25147.89401101  .00000609  00000+0  17079-2 0  9994
2 51639  87.8803 113.0565 0002236  82.9524 277.1857 13.10371708160166
